SAKHACUBE-CHOLBON (RS18S)
1 67290U 25313AU  26198.66857256  .00004702  00000-0  18900-3 0  9993
2 67290  97.3920 273.3314 0007900 240.5934 119.4516 15.25385530 30627
LUCA-1 (RS90S)
1 67287U 25313AR  26198.17408246  .00004482  00000-0  18236-3 0  9993
2 67287  97.3923 272.7742 0008099 244.0789 115.9615 15.25000528 30544
QMR-KWT-2 (RS95S)
1 67291U 25313AV  26198.62646624  .00007221  00000-0  27495-3 0  9993
2 67291  97.3917 273.5336 0007638 236.6544 123.3965 15.27012118 30635
LOBACHEVSKY (RS83S)
1 67284U 25313AN  26198.84577140  .00002534  00000-0  11020-3 0  9994
2 67284  97.3910 273.0572 0009093 247.1284 112.8993 15.23151188 30622
NASBSAT-1
1 67289U 25313AT  26198.77829463  .00006300  00000-0  24268-3 0  9992
2 67289  97.3920 273.6412 0007966 238.3740 121.6722 15.26677103 30657
NASBSAT-2
1 67285U 25313AP  26198.63620968  .00003314  00000-0  13948-3 0  9997
2 67285  97.3908 273.0170 0008733 248.0662 111.9648 15.24041285 30606
HORS-5
1 67283U 25313AM  26198.94622369  .00003495  00000-0  14598-3 0  9998
2 67283  97.3922 273.4164 0008815 244.6414 115.3911 15.24265526 30657
AIST-2T 2
1 67253U 25313F   26198.63425095  .00017286  00000-0  20894-3 0  9997
2 67253  97.0816 276.2091 0004814 145.0298 215.1277 15.60762087 31370
AIST-2T 1
1 67254U 25313G   26198.66641765 -.00002119  00000-0 -24396-4 0  9998
2 67254  97.0815 276.1620 0004063 114.2632 245.9051 15.60683545 31364
AIST-ST (RS86S)
1 67267U 25313V   26198.67269283  .00005237  00000-0  21538-3 0  9990
2 67267  97.3925 273.0388 0011962 258.6910 101.2983 15.24527159 30600
KOWSAR 1.5
1 67264U 25313S   26198.94042959  .00003104  00000-0  13622-3 0  9992
2 67264  97.4011 273.2001 0013166 259.4443 100.5311 15.22633311 30621
PAYA
1 67255U 25313H   26198.12079003  .00001303  00000-0  86223-4 0  9999
2 67255  97.2850 264.4563 0067252 230.3711 129.1571 15.07218060 30163
GRIFON-1
1 67281U 25313AK  26198.69254715  .00002419  00000-0  10642-3 0  9995
2 67281  97.3869 272.7069 0010317 249.6417 110.3711 15.22789602 30599
GRIFON-2
1 67272U 25313AA  26198.65879885  .00004435  00000-0  18320-3 0  9993
2 67272  97.3925 273.0519 0012146 253.8942 106.0959 15.24460516 30608
GRIFON-3
1 67280U 25313AJ  26198.77079244  .00002350  00000-0  10374-3 0  9991
2 67280  97.3985 273.0544 0011570 250.6243 109.3743 15.22692411 30606
GRIFON-4
1 67261U 25313P   26198.94615800  .00009599  00000-0  36102-3 0  9992
2 67261  97.3952 273.8259 0012163 244.9660 115.0317 15.27286843 30679
MARAFON
1 67250U 25313C   26198.61040907  .00004835  00000-0  42147-3 0  9998
2 67250  97.6150 268.1843 0148507 235.4448 123.2680 14.89174688 29882
MORSAT (RS96S)
1 67262U 25313Q   26198.67503405  .00001992  00000-0  83396-4 0  9997
2 67262  97.3933 273.0297 0012889 252.1986 107.7846 15.24666714 30604
MARAFON-EXPERIMENTAL
1 67251U 25313D   26198.77363806  .00000790  00000-0  72835-4 0  9996
2 67251  97.5674 267.8016 0147380 225.0369 133.8824 14.89714823 29952
GXIBA-1
1 67684U 98067YA  26198.23122414  .00369418  63694-4  10391-2 0  9995
2 67684  51.6162 131.5425 0001613 349.5884  10.5089 15.92998545 25127
CORAL
1 67685U 98067YB  26198.07968752  .00041234  00000-0  41936-3 0  9992
2 67685  51.6259 142.6595 0008538 332.3430  27.7109 15.64694508 24961
KNACKSAT-2
1 67683U 98067XZ  26198.24140567  .00034112  00000-0  37883-3 0  9998
2 67683  51.6276 143.0009 0007952 335.1166  24.9444 15.62548905 24978
RASSVET-3 1
1 68360U 26061A   26198.84781948  .00001219  00000-0  58392-4 0  9997
2 68360  82.2919 340.7473 0000805 154.9318 205.1955 15.18043256 18223
RASSVET-3 2
1 68361U 26061B   26198.49904861 -.00167167  00000-0 -51600-2 0  9990
2 68361  82.2932 339.7956 0002615 343.9369  16.1790 15.34279947 18256
RASSVET-3 3
1 68362U 26061C   26198.90073809  .00001225  00000-0  58707-4 0  9993
2 68362  82.2966 342.8034 0003422 124.0976 236.0582 15.18044587 18103
RASSVET-3 5
1 68364U 26061E   26198.84131577  .00001159  00000-0  55491-4 0  9998
2 68364  82.2973 343.6978 0001316 151.4674 208.6632 15.18034061 18048
RASSVET-3 6
1 68365U 26061F   26198.90292788  .00001212  00000-0  58052-4 0  9994
2 68365  82.2952 343.2865 0002733 108.3106 251.8424 15.18038580 18074
RASSVET-3 7
1 68366U 26061G   26198.90507771  .00001105  00000-0  52793-4 0  9993
2 68366  82.2949 342.6392 0002988  78.5867 281.5702 15.18025536 18114
RASSVET-3 8
1 68367U 26061H   26198.72250925  .00001925  00000-0  88402-4 0  9996
2 68367  82.2940 340.2815 0005498 266.9331  93.1274 15.19831502 18242
RASSVET-3 9
1 68368U 26061J   26198.84564345  .00001209  00000-0  57884-4 0  9999
2 68368  82.2935 340.9330 0002965 187.3381 172.7809 15.18044935 18213
RASSVET-3 10
1 68369U 26061K   26198.73286223 -.00161706  00000-0 -16488-2 0  9998
2 68369  82.2894 337.0046 0001461  27.9021 332.2316 15.65574157 18446
RASSVET-3 11
1 68370U 26061L   26198.83443108  .00027908  00000-0  26001-3 0  9994
2 68370  82.2940 338.1725 0007622  61.3487 298.8538 15.67158691 18388
RASSVET-3 12
1 68371U 26061M   26198.90939088  .00001135  00000-0  54314-4 0  9993
2 68371  82.2955 343.2869 0000294  73.2688 286.8578 15.18034656 18071
RASSVET-3 13
1 68372U 26061N   26198.72061813 -.00226971  00000-0 -10917-1 0  9993
2 68372  82.2972 343.0618 0007174 331.9259  28.1587 15.19869494 18077
RASSVET-3 14
1 68373U 26061P   26198.93147042  .00024529  00000-0  19006-3 0  9999
2 68373  82.2946 338.1614 0008875  15.2047 344.9480 15.71627274 18398
RASSVET-3 15
1 68374U 26061Q   26198.86822399  .00002379  00000-0  96791-4 0  9993
2 68374  82.2964 339.8648 0005030  96.4788 263.7021 15.24039869 18289
RASSVET-3 16
1 68375U 26061R   26198.84989294  .00001255  00000-0  60242-4 0  9994
2 68375  82.2938 340.9442 0000750 167.9301 192.1950 15.18009011 18213
HADES-SA (SPINNYONE)
1 68446U 26067AG  26198.84184889  .00010130  00000-0  47256-3 0  9997
2 68446  97.4420 156.7033 0005650 354.3460   5.7711 15.20034585 16586
OBZP1
1 90000U 00001A   26082.73220162  .00000000  00000-0  52294-3 0    10
2 90000  82.2945 108.6614 0025130  78.3270   5.7283 15.88315102    15
